[{"OBJECT_ID":"2010-034A","OBJECT_NAME":"ECHOSTAR 15","NORAD_CAT_ID":"36792","OBJECT_TYPE":"PAYLOAD","PERIOD":"1436.085","INCLINATION":"0.062","APOGEE":"35795.102","PERIGEE":"35777.637","ECCENTRICITY":"0.0002071","MEAN_MOTION":"1.00272594","TLE_LINE1":"1 36792U 10034A   16238.76073046 -.00000309 +00000-0 +00000-0 0  9991","TLE_LINE2":"2 36792 000.0620 288.7767 0002071 250.7962 007.0891 01.00272594022451","LAUNCH_DATE":"2010-07-10","LAUNCH_SITE":"TYURATAM MISSILE AND SPACE COMPLEX","OWNER":"UNITED STATES OF AMERICA","ORBIT_TYPE":"Geosynchronous","OPERATIONAL_STATUS":"Operational","satInfo":{"lng":-71.99984429172454,"lat":-1.7632834299397004,"elevation":-10.291589345571595,"azimuth":26.999844291724514,"range":42838.06255631705,"height":35790.66312111621,"velocity":3.0748452306852836},"x":-340,"y":-111},{"OBJECT_ID":"2010-037A","OBJECT_NAME":"NILESAT 201","NORAD_CAT_ID":"36830","OBJECT_TYPE":"PAYLOAD","PERIOD":"1436.104","INCLINATION":"0.049","APOGEE":"35807.682","PERIGEE":"35765.804","ECCENTRICITY":"0.0004966","MEAN_MOTION":"1.00271262","TLE_LINE1":"1 36830U 10037A   16239.13452203 -.00000086  00000-0  00000+0 0  9996","TLE_LINE2":"2 36830   0.0490 196.7014 0004966 310.0536 229.4581  1.00271262 22372","LAUNCH_DATE":"2010-08-04","LAUNCH_SITE":"FRENCH GUIANA","OWNER":"EGYPT","ORBIT_TYPE":"Geosynchronous","OPERATIONAL_STATUS":"Operational","satInfo":{"lng":71.34669548015275,"lat":-0.0259106938483135,"elevation":-8.588520749246804,"azimuth":243.65330451984727,"range":42696.61702609354,"height":35839.698168860334,"velocity":3.072050576820719},"x":340,"y":-115},{"OBJECT_ID":"2010-037B","OBJECT_NAME":"RASCOM QAF 1R","NORAD_CAT_ID":"36831","OBJECT_TYPE":"PAYLOAD","PERIOD":"1436.099","INCLINATION":"0.0098","APOGEE":"35805.731","PERIGEE":"35767.555","ECCENTRICITY":"0.0004527","MEAN_MOTION":"1.00271618","TLE_LINE1":"1 36831U 10037B   16239.06218256 -.00000010  00000-0  00000+0 0  9994","TLE_LINE2":"2 36831   0.0098 112.0285 0004527  56.6819 191.2929  1.00271618 22375","LAUNCH_DATE":"2010-08-04","LAUNCH_SITE":"FRENCH GUIANA","OWNER":"REGIONAL AFRICAN SATELLITE COMMUNICATIONS ORG","ORBIT_TYPE":"Geosynchronous","OPERATIONAL_STATUS":"Operational","satInfo":{"lng":10.823543852486644,"lat":-0.9617123904597595,"elevation":-9.508917152386942,"azimuth":304.17645614751336,"range":42762.287044009405,"height":35802.527847693425,"velocity":3.0738709312624475},"x":67,"y":-352},{"OBJECT_ID":"2010-042A","OBJECT_NAME":"CHINASAT 6A","NORAD_CAT_ID":"37150","OBJECT_TYPE":"PAYLOAD","PERIOD":"1436.110","INCLINATION":"0.031","APOGEE":"35794.354","PERIGEE":"35779.377","ECCENTRICITY":"0.0001776","MEAN_MOTION":"1.00270827","TLE_LINE1":"1 37150U 10042A   16238.90935572 -.00000382 +00000-0 +00000-0 0  9997","TLE_LINE2":"2 37150 000.0310 254.7198 0001776 218.3258 313.9774 01.00270827021989","LAUNCH_DATE":"2010-09-04","LAUNCH_SITE":"Xichang Space Center, China","OWNER":"PEOPLES REPUBLIC OF CHINA","ORBIT_TYPE":"Geosynchronous","OPERATIONAL_STATUS":"Operational","satInfo":{"lng":95.04262960488138,"lat":1.170261769159345,"elevation":-7.423680174447062,"azimuth":219.9573703951186,"range":42539.21052281199,"height":35813.29479220626,"velocity":3.073658095233534},"x":357,"y":31},{"OBJECT_ID":"2010-053A","OBJECT_NAME":"XM-5","NORAD_CAT_ID":"37185","OBJECT_TYPE":"PAYLOAD","PERIOD":"1436.101","INCLINATION":"0.0103","APOGEE":"35788.482","PERIGEE":"35784.898","ECCENTRICITY":"4.25e-05","MEAN_MOTION":"1.00271451","TLE_LINE1":"1 37185U 10053A   16238.61711579 -.00000232 +00000-0 +00000-0 0  9998","TLE_LINE2":"2 37185 000.0103 102.5125 0000425 147.7436 220.9912 01.00271451021570","LAUNCH_DATE":"2010-10-14","LAUNCH_SITE":"TYURATAM MISSILE AND SPACE COMPLEX","OWNER":"UNITED STATES OF AMERICA","ORBIT_TYPE":"Geosynchronous","OPERATIONAL_STATUS":"Operational","satInfo":{"lng":-101.1060256872961,"lat":2.246981783823601,"elevation":-6.371009202752944,"azimuth":56.10602568729614,"range":42402.96892179117,"height":35795.35367130601,"velocity":3.074402058371909},"x":-351,"y":69},{"OBJECT_ID":"2010-056B","OBJECT_NAME":"BSAT-3B","NORAD_CAT_ID":"37207","OBJECT_TYPE":"PAYLOAD","PERIOD":"1436.124","INCLINATION":"0.1074","APOGEE":"35794.802","PERIGEE":"35779.454","ECCENTRICITY":"0.000182","MEAN_MOTION":"1.00269889","TLE_LINE1":"1 37207U 10056B   16239.41875215 -.00000379  00000-0  00000+0 0  9994","TLE_LINE2":"2 37207   0.1074 294.3798 0001820 328.3555 332.9539  1.00269889 21355","LAUNCH_DATE":"2010-10-28","LAUNCH_SITE":"FRENCH GUIANA","OWNER":"JAPAN","ORBIT_TYPE":"Geosynchronous","OPERATIONAL_STATUS":"Operational","satInfo":{"lng":49.48760868232163,"lat":1.8241575049823164,"elevation":-6.78601839738025,"azimuth":265.5123913176783,"range":42450.196842418336,"height":35796.020623848344,"velocity":3.0745051426461547},"x":272,"y":-233},{"OBJECT_ID":"2010-057A","OBJECT_NAME":"BEIDOU G4","NORAD_CAT_ID":"37210","OBJECT_TYPE":"PAYLOAD","PERIOD":"1436.100","INCLINATION":"0.8829","APOGEE":"35820.735","PERIGEE":"35752.597","ECCENTRICITY":"0.000808","MEAN_MOTION":"1.00271536","TLE_LINE1":"1 37210U 10057A   16238.84658787 -.00000140 +00000-0 +00000-0 0  9995","TLE_LINE2":"2 37210 000.8829 049.2982 0008080 166.2271 223.7590 01.00271536021373","LAUNCH_DATE":"2010-10-31","LAUNCH_SITE":"Xichang Space Center, China","OWNER":"PEOPLES REPUBLIC OF CHINA","ORBIT_TYPE":"Geosynchronous","OPERATIONAL_STATUS":"Operational","satInfo":{"lng":-83.31019666194673,"lat":0.2337619453823002,"elevation":-8.34530195882671,"azimuth":38.310196661946726,"range":42616.28689354803,"height":35787.251182690685,"velocity":3.0758019188369556},"x":-355,"y":-42},{"OBJECT_ID":"2010-064A","OBJECT_NAME":"CHINASAT 20A","NORAD_CAT_ID":"37234","OBJECT_TYPE":"PAYLOAD","PERIOD":"1436.093","INCLINATION":"0.0732","APOGEE":"35796.601","PERIGEE":"35776.471","ECCENTRICITY":"0.0002387","MEAN_MOTION":"1.00272001","TLE_LINE1":"1 37234U 10064A   16238.76854906 -.00000364  00000-0  00000+0 0  9998","TLE_LINE2":"2 37234   0.0732 264.3054 0002387 337.6681 139.1717  1.00272001 21118","LAUNCH_DATE":"2010-11-24","LAUNCH_SITE":"Xichang Space Center, China","OWNER":"PEOPLES REPUBLIC OF CHINA","ORBIT_TYPE":"Geosynchronous","OPERATIONAL_STATUS":"Operational","satInfo":{"lng":119.96028529478755,"lat":0.6616648607400113,"elevation":-7.9222923691172,"azimuth":195.03971470521245,"range":42591.825787190384,"height":35809.998914843956,"velocity":3.073518725355788},"x":310,"y":179},{"OBJECT_ID":"2010-065A","OBJECT_NAME":"HYLAS 1","NORAD_CAT_ID":"37237","OBJECT_TYPE":"PAYLOAD","PERIOD":"1436.083","INCLINATION":"0.0426","APOGEE":"35792.560","PERIGEE":"35780.122","ECCENTRICITY":"0.0001475","MEAN_MOTION":"1.00272696","TLE_LINE1":"1 37237U 10065A   16239.09317137 -.00000262  00000-0  00000+0 0  9996","TLE_LINE2":"2 37237   0.0426 313.9815 0001475 210.2199 170.6065  1.00272696 21086","LAUNCH_DATE":"2010-11-26","LAUNCH_SITE":"FRENCH GUIANA","OWNER":"UNITED KINGDOM","ORBIT_TYPE":"Geosynchronous","OPERATIONAL_STATUS":"Operational","satInfo":{"lng":-44.369885510064805,"lat":-1.3530947725721298,"elevation":-9.896432744108806,"azimuth":359.36988551006476,"range":42773.63177281298,"height":35770.76541487042,"velocity":3.0753787091543154},"x":-250,"y":-256},{"OBJECT_ID":"2010-065B","OBJECT_NAME":"INTELSAT 17","NORAD_CAT_ID":"37238","OBJECT_TYPE":"PAYLOAD","PERIOD":"1436.088","INCLINATION":"0.0461","APOGEE":"35797.036","PERIGEE":"35775.844","ECCENTRICITY":"0.0002513","MEAN_MOTION":"1.00272343","TLE_LINE1":"1 37238U 10065B   16239.03591009 -.00000030  00000-0  00000+0 0  9996","TLE_LINE2":"2 37238   0.0461 259.3121 0002513 253.1142 261.2048  1.00272343 21006","LAUNCH_DATE":"2010-11-26","LAUNCH_SITE":"FRENCH GUIANA","OWNER":"INTERNATIONAL TELECOMMUNICATIONS SATELLITE ORGANIZATION (INTELSAT)","ORBIT_TYPE":"Geosynchronous","OPERATIONAL_STATUS":"Operational","satInfo":{"lng":84.23716325668104,"lat":1.64312597518326,"elevation":-6.963534909000323,"azimuth":230.7628367433189,"range":42470.56382140658,"height":35796.4672406194,"velocity":3.073997289922647},"x":356,"y":-36},{"OBJECT_ID":"2010-069A","OBJECT_NAME":"EUTE KA SAT 9A (KA SAT)","NORAD_CAT_ID":"37258","OBJECT_TYPE":"PAYLOAD","PERIOD":"1436.102","INCLINATION":"0.0528","APOGEE":"35802.922","PERIGEE":"35770.472","ECCENTRICITY":"0.0003848","MEAN_MOTION":"1.00271427","TLE_LINE1":"1 37258U 10069A   16238.04800626 +.00000036 +00000-0 +00000-0 0  9996","TLE_LINE2":"2 37258 000.0528 286.9582 0003848 210.1257 222.9410 01.00271427008128","LAUNCH_DATE":"2010-12-26","LAUNCH_SITE":"TYURATAM MISSILE AND SPACE COMPLEX","OWNER":"EUROPEAN TELECOMMUNICATIONS SATELLITE ORGANIZATION (EUTELSAT)","ORBIT_TYPE":"Geosynchronous","OPERATIONAL_STATUS":"Operational","satInfo":{"lng":8.88215164220955,"lat":1.0684767663912549,"elevation":-7.526212383014169,"azimuth":306.1178483577904,"range":42536.50912268828,"height":35799.24817868975,"velocity":3.0737913158120307},"x":55,"y":-354},{"OBJECT_ID":"2010-070A","OBJECT_NAME":"HISPASAT 1E","NORAD_CAT_ID":"37264","OBJECT_TYPE":"PAYLOAD","PERIOD":"1436.111","INCLINATION":"0.0214","APOGEE":"35808.019","PERIGEE":"35765.752","ECCENTRICITY":"0.0005012","MEAN_MOTION":"1.00270754","TLE_LINE1":"1 37264U 10070A   16239.38824353 -.00000245  00000-0  00000+0 0  9998","TLE_LINE2":"2 37264   0.0214 134.2123 0005012  21.1506 289.4656  1.00270754 20750","LAUNCH_DATE":"2010-12-29","LAUNCH_SITE":"FRENCH GUIANA","OWNER":"SPAIN","ORBIT_TYPE":"Geosynchronous","OPERATIONAL_STATUS":"Operational","satInfo":{"lng":-48.31759008971188,"lat":1.4745477241090768,"elevation":-7.135980006775297,"azimuth":3.317590089711829,"range":42454.19537484762,"height":35761.15354362067,"velocity":3.0759434269770507},"x":-267,"y":-238}]